{
    "links": {
        "self": "http://www.neowsapp.com/rest/v1/neo/3508114?api_key=iIulBulltgU6a56xZRHN4H3l9WmuAYTsLGpBGhQ2"
    },
    "id": "3508114",
    "neo_reference_id": "3508114",
    "name": "(2010 CH19)",
    "designation": "2010 CH19",
    "nasa_jpl_url": "http://ssd.jpl.nasa.gov/sbdb.cgi?sstr=3508114",
    "absolute_magnitude_h": 22.2,
    "estimated_diameter": {
        "kilometers": {
            "estimated_diameter_min": 0.096506147,
            "estimated_diameter_max": 0.2157943048
        },
        "meters": {
            "estimated_diameter_min": 96.5061469579,
            "estimated_diameter_max": 215.7943048444
        },
        "miles": {
            "estimated_diameter_min": 0.059966121,
            "estimated_diameter_max": 0.134088323
        },
        "feet": {
            "estimated_diameter_min": 316.6212271853,
            "estimated_diameter_max": 707.9865871058
        }
    },
    "is_potentially_hazardous_asteroid": false,
    "close_approach_data": [
        {
            "close_approach_date": "2009-12-02",
            "close_approach_date_full": "2009-Dec-02 01:58",
            "epoch_date_close_approach": 1259719080000,
            "relative_velocity": {
                "kilometers_per_second": "9.0121684674",
                "kilometers_per_hour": "32443.8064826424",
                "miles_per_hour": "20159.3196447285"
            },
            "miss_distance": {
                "astronomical": "0.1998533139",
                "lunar": "77.7429391071",
                "kilometers": "29897630.071881393",
                "miles": "18577525.8753455034"
            },
            "orbiting_body": "Earth"
        }
    ],
    "orbital_data": {
        "orbit_id": "7",
        "orbit_determination_date": "2017-04-06 08:58:26",
        "first_observation_date": "2010-02-14",
        "last_observation_date": "2010-02-19",
        "data_arc_in_days": 5,
        "observations_used": 26,
        "orbit_uncertainty": "9",
        "minimum_orbit_intersection": ".0612855",
        "jupiter_tisserand_invariant": "4.035",
        "epoch_osculation": "2455242.5",
        "eccentricity": ".5005510845687573",
        "semi_major_axis": "1.700443411405744",
        "inclination": "10.03822295005671",
        "ascending_node_longitude": "325.1211119840525",
        "orbital_period": "809.9192148798827",
        "perihelion_distance": ".8492846175788015",
        "perihelion_argument": "80.74281991873794",
        "aphelion_distance": "2.551602205232687",
        "perihelion_time": "2455148.572052586183",
        "mean_anomaly": "41.7499183223959",
        "mean_motion": ".4444887754063111",
        "equinox": "J2000",
        "orbit_class": {
            "orbit_class_type": "APO",
            "orbit_class_description": "Near-Earth asteroid orbits which cross the Earth’s orbit similar to that of 1862 Apollo",
            "orbit_class_range": "a (semi-major axis) > 1.0 AU; q (perihelion) < 1.017 AU"
        }
    },
    "is_sentry_object": false
}